[{"OBJECT_NAME":"JILIN-1 GAOFEN 03D18","OBJECT_ID":"2022-019W","EPOCH":"2026-03-09T22:03:04.622400","MEAN_MOTION":15.76695092,"ECCENTRICITY":0.00043918,"INCLINATION":97.3672,"RA_OF_ASC_NODE":161.2344,"ARG_OF_PERICENTER":144.1291,"MEAN_ANOMALY":216.027,"EPHEMERIS_TYPE":0,"CLASSIFICATION_TYPE":"U","NORAD_CAT_ID":51844,"ELEMENT_SET_NO":999,"REV_AT_EPOCH":22438,"BSTAR":0.0011951386,"MEAN_MOTION_DOT":0.00194669,"MEAN_MOTION_DDOT":0},{"OBJECT_NAME":"STARLINK-36583","OBJECT_ID":"2026-014P","EPOCH":"2026-03-09T15:31:55.551936","MEAN_MOTION":15.75190661,"ECCENTRICITY":0.0001799,"INCLINATION":97.2837,"RA_OF_ASC_NODE":313.5294,"ARG_OF_PERICENTER":31.4335,"MEAN_ANOMALY":328.7037,"EPHEMERIS_TYPE":0,"CLASSIFICATION_TYPE":"U","NORAD_CAT_ID":67545,"ELEMENT_SET_NO":999,"REV_AT_EPOCH":856,"BSTAR":0.00088417,"MEAN_MOTION_DOT":0.00133843,"MEAN_MOTION_DDOT":0}]
